CCSDS_OEM_VERS = 1.0
CREATION_DATE  = 2017-05-11T11:15:07
ORIGINATOR     = GMAT USER

META_START
OBJECT_NAME          = MOPSSat_alt_35785_km_RAAN_90_064
OBJECT_ID            = SatId
CENTER_NAME          = Earth
REF_FRAME            = EME2000
TIME_SYSTEM          = UTC
START_TIME           = 2017-01-01T00:00:00.000
USEABLE_START_TIME   = 2017-01-01T00:00:00.000
USEABLE_STOP_TIME    = 2017-01-02T00:00:00.000
STOP_TIME            = 2017-01-02T00:00:00.000
INTERPOLATION        = Lagrange
INTERPOLATION_DEGREE = 7 
META_STOP


                                                                                   

2017-01-01T09:37:30.000  -2.422597743684499e+04  -3.444644506217408e+04   2.119992142268585e+03   2.502107323268558e+00  -1.773125338960460e+00  -2.189320300179065e-01
2017-01-01T09:37:40.000  -2.420094992454910e+04  -3.446416715652181e+04   2.117802258389421e+03   2.503394815837363e+00  -1.771293304081909e+00  -2.190447178114479e-01
2017-01-01T09:37:50.000  -2.417590954400990e+04  -3.448187092579121e+04   2.115611248216948e+03   2.504680977408157e+00  -1.769460327361880e+00  -2.191572891589751e-01
2017-01-01T09:38:00.000  -2.415085630873754e+04  -3.449955636043003e+04   2.113419112933138e+03   2.505965807287151e+00  -1.767626409788945e+00  -2.192697439997567e-01
2017-01-01T09:38:10.000  -2.412579023230879e+04  -3.451722345085371e+04   2.111225853725804e+03   2.507249304778212e+00  -1.765791552356557e+00  -2.193820822728560e-01
2017-01-01T09:38:20.000  -2.410071132779217e+04  -3.453487218785076e+04   2.109031471738269e+03   2.508531469212305e+00  -1.763955756020953e+00  -2.194943039197085e-01
2017-01-01T09:38:30.000  -2.407561960832412e+04  -3.455250256217617e+04   2.106835968119815e+03   2.509812299917963e+00  -1.762119021743353e+00  -2.196064088815362e-01
2017-01-01T09:38:40.000  -2.405051508696045e+04  -3.457011456465656e+04   2.104639344012665e+03   2.511091796228922e+00  -1.760281350479072e+00  -2.197183971000168e-01
2017-01-01T09:38:50.000  -2.402539777707578e+04  -3.458770818590692e+04   2.102441600586933e+03   2.512369957463538e+00  -1.758442743206755e+00  -2.198302685154819e-01
2017-01-01T09:39:00.000  -2.400026769203408e+04  -3.460528341656469e+04   2.100242739011805e+03   2.513646782941801e+00  -1.756603200904275e+00  -2.199420230684059e-01
2017-01-01T09:39:10.000  -2.397512484526459e+04  -3.462284024723574e+04   2.098042760462180e+03   2.514922271981408e+00  -1.754762724554278e+00  -2.200536606990622e-01
2017-01-01T09:39:20.000  -2.394996925023313e+04  -3.464037866851639e+04   2.095841666116155e+03   2.516196423899355e+00  -1.752921315142091e+00  -2.201651813476636e-01
2017-01-01T09:39:30.000  -2.392480092042734e+04  -3.465789867100217e+04   2.093639457153737e+03   2.517469238012589e+00  -1.751078973654634e+00  -2.202765849544179e-01
2017-01-01T09:39:40.000  -2.389961986932649e+04  -3.467540024530885e+04   2.091436134754204e+03   2.518740713639517e+00  -1.749235701078219e+00  -2.203878714596607e-01
2017-01-01T09:39:50.000  -2.387442611038819e+04  -3.469288338208324e+04   2.089231700094934e+03   2.520010850100806e+00  -1.747391498397565e+00  -2.204990408039259e-01
2017-01-01T09:40:00.000  -2.384921965701777e+04  -3.471034807202261e+04   2.087026154348735e+03   2.521279646720784e+00  -1.745546366593571e+00  -2.206100929280670e-01
2017-01-01T09:40:10.000  -2.382400052264524e+04  -3.472779430582192e+04   2.084819498690573e+03   2.522547102823619e+00  -1.743700306648938e+00  -2.207210277729243e-01
2017-01-01T09:40:20.000  -2.379876872039176e+04  -3.474522207440226e+04   2.082611734268388e+03   2.523813217749892e+00  -1.741853319523760e+00  -2.208318452807741e-01
2017-01-01T09:40:30.000  -2.377352426347349e+04  -3.476263136863373e+04   2.080402862238437e+03   2.525077990836494e+00  -1.740005406185085e+00  -2.209425453935696e-01
2017-01-01T09:40:40.000  -2.374826716504911e+04  -3.478002217944045e+04   2.078192883751946e+03   2.526341421424230e+00  -1.738156567595754e+00  -2.210531280536068e-01
2017-01-01T09:40:50.000  -2.372299743881022e+04  -3.479739449739375e+04   2.075981800006769e+03   2.527603508828274e+00  -1.736306804757614e+00  -2.211635932009387e-01
2017-01-01T09:41:00.000  -2.369771509839104e+04  -3.481474831311910e+04   2.073769612195742e+03   2.528864252367737e+00  -1.734456118668316e+00  -2.212739407759619e-01
2017-01-01T09:41:10.000  -2.367242015752057e+04  -3.483208361719082e+04   2.071556321519996e+03   2.530123651358014e+00  -1.732604510332447e+00  -2.213841707187485e-01
2017-01-01T09:41:20.000  -2.364711262962022e+04  -3.484940040041115e+04   2.069341929153744e+03   2.531381705131051e+00  -1.730751980732077e+00  -2.214942829708187e-01
2017-01-01T09:41:30.000  -2.362179252813559e+04  -3.486669865357965e+04   2.067126436273321e+03   2.532638413018601e+00  -1.728898530851050e+00  -2.216042774736764e-01
2017-01-01T09:41:40.000  -2.359645986646010e+04  -3.488397836754632e+04   2.064909844050491e+03   2.533893774356086e+00  -1.727044161669382e+00  -2.217141541691459e-01
2017-01-01T09:41:50.000  -2.357111465796376e+04  -3.490123953319015e+04   2.062692153654972e+03   2.535147788481025e+00  -1.725188874165386e+00  -2.218239129992354e-01
2017-01-01T09:42:00.000  -2.354575691600817e+04  -3.491848214141032e+04   2.060473366255751e+03   2.536400454732408e+00  -1.723332669316750e+00  -2.219335539060818e-01
2017-01-01T09:42:10.000  -2.352038665397680e+04  -3.493570618310563e+04   2.058253483023721e+03   2.537651772449196e+00  -1.721475548102768e+00  -2.220430768318192e-01
2017-01-01T09:42:20.000  -2.349500388528848e+04  -3.495291164916378e+04   2.056032505132875e+03   2.538901740969538e+00  -1.719617511505320e+00  -2.221524817185111e-01
2017-01-01T09:42:30.000  -2.346960862342810e+04  -3.497009853044239e+04   2.053810433762984e+03   2.540150359629405e+00  -1.717758560511121e+00  -2.222617685080297e-01
2017-01-01T09:42:40.000  -2.344420088186916e+04  -3.498726681782073e+04   2.051587270092823e+03   2.541397627766334e+00  -1.715898696106055e+00  -2.223709371423846e-01
2017-01-01T09:42:50.000  -2.341878067440974e+04  -3.500441650197531e+04   2.049363015329569e+03   2.542643544703134e+00  -1.714037919299759e+00  -2.224799875622961e-01
2017-01-01T09:43:00.000  -2.339334801476559e+04  -3.502154757365218e+04   2.047137670673194e+03   2.543888109767662e+00  -1.712176231095851e+00  -2.225889197089268e-01
2017-01-01T09:43:10.000  -2.336790291672129e+04  -3.503866002356559e+04   2.044911237329694e+03   2.545131322285465e+00  -1.710313632502983e+00  -2.226977335232362e-01
2017-01-01T09:43:20.000  -2.334244539354515e+04  -3.505575384279160e+04   2.042683716459888e+03   2.546373181608376e+00  -1.708450124492011e+00  -2.228064289484852e-01
2017-01-01T09:43:30.000  -2.331697545857263e+04  -3.507282902237527e+04   2.040455109230478e+03   2.547613687085974e+00  -1.706585708038717e+00  -2.229150059277373e-01
2017-01-01T09:43:40.000  -2.329149312507451e+04  -3.508988555342002e+04   2.038225416802500e+03   2.548852838072075e+00  -1.704720384114138e+00  -2.230234644044266e-01
2017-01-01T09:43:50.000  -2.326599840658503e+04  -3.510692342686410e+04   2.035994640360049e+03   2.550090633908500e+00  -1.702854153708601e+00  -2.231318043209372e-01
2017-01-01T09:44:00.000  -2.324049131665874e+04  -3.512394263364730e+04   2.033762781088991e+03   2.551327073937173e+00  -1.700987017813921e+00  -2.232400256196625e-01
2017-01-01T09:44:10.000  -2.321497186886977e+04  -3.514094316470987e+04   2.031529840176909e+03   2.552562157500058e+00  -1.699118977423340e+00  -2.233481282429991e-01
2017-01-01T09:44:20.000  -2.318944007705880e+04  -3.515792501083158e+04   2.029295818834710e+03   2.553795883927457e+00  -1.697250033549618e+00  -2.234561121323230e-01
2017-01-01T09:44:30.000  -2.316389595500103e+04  -3.517488816284952e+04   2.027060718267571e+03   2.555028252553832e+00  -1.695380187200717e+00  -2.235639772293743e-01
2017-01-01T09:44:40.000  -2.313833951653681e+04  -3.519183261157203e+04   2.024824539686366e+03   2.556259262711559e+00  -1.693509439389370e+00  -2.236717234757102e-01
2017-01-01T09:44:50.000  -2.311277077499490e+04  -3.520875834816111e+04   2.022587284257214e+03   2.557488913758707e+00  -1.691637791090862e+00  -2.237793508151370e-01
2017-01-01T09:45:00.000  -2.308718974376907e+04  -3.522566536374987e+04   2.020348953151913e+03   2.558717205051242e+00  -1.689765243285233e+00  -2.238868591912768e-01
2017-01-01T09:45:10.000  -2.306159643618793e+04  -3.524255364952926e+04   2.018109547536567e+03   2.559944135949333e+00  -1.687891796947755e+00  -2.239942485481196e-01
2017-01-01T09:45:20.000  -2.303599086584468e+04  -3.525942319652689e+04   2.015869068600427e+03   2.561169705801282e+00  -1.686017453073068e+00  -2.241015188286164e-01
2017-01-01T09:45:30.000  -2.301037304635283e+04  -3.527627399577198e+04   2.013627517534524e+03   2.562393913955506e+00  -1.684142212657298e+00  -2.242086699757286e-01
2017-01-01T09:45:40.000  -2.298474299134538e+04  -3.529310603829437e+04   2.011384895531596e+03   2.563616759760468e+00  -1.682266076698002e+00  -2.243157019324215e-01
2017-01-01T09:45:50.000  -2.295910071472303e+04  -3.530991931496517e+04   2.009141203807801e+03   2.564838242553095e+00  -1.680389046212324e+00  -2.244226146406506e-01
2017-01-01T09:46:00.000  -2.293344623032061e+04  -3.532671381671241e+04   2.006896443573532e+03   2.566058361674453e+00  -1.678511122212589e+00  -2.245294080427336e-01
2017-01-01T09:46:10.000  -2.290777955204068e+04  -3.534348953443415e+04   2.004650616045119e+03   2.567277116463426e+00  -1.676632305716087e+00  -2.246360820807969e-01
2017-01-01T09:46:20.000  -2.288210069326479e+04  -3.536024645938342e+04   2.002403722393294e+03   2.568494506284687e+00  -1.674752597701960e+00  -2.247426366992248e-01
2017-01-01T09:46:30.000  -2.285640966744362e+04  -3.537698458278217e+04   2.000155763794840e+03   2.569710530500649e+00  -1.672871999154415e+00  -2.248490718422033e-01
